start=new Date('2023-01-15T00:00:00.000Z').valueOf();
sats=[{"RCS_SIZE":"LARGE","SEMIMAJOR_AXIS":"6925.336","SITE":"AFETR","INCLINATION":"53.0535","TLE_LINE1":"1 45682U 20035AB  23014.72966528  .00000855  00000-0  76272-4 0  9996","CLASSIFICATION_TYPE":"U","MEAN_MOTION_DDOT":"0.0000000000000","ECCENTRICITY":"0.00012060","EPHEMERIS_TYPE":"0","TIME_SYSTEM":"UTC","PERIOD":"95.592","MEAN_ANOMALY":"251.7698","TLE_LINE2":"2 45682  53.0535 178.9974 0001206 108.3422 251.7698 15.06404046145134","MEAN_ELEMENT_THEORY":"SGP4","LAUNCH_DATE":"2020-06-04","NORAD_CAT_ID":"45682","REV_AT_EPOCH":"14513","PERIAPSIS":"546.366","MEAN_MOTION":"15.06404046","DECAY_DATE":null,"ELEMENT_SET_NO":"999","EPOCH":"2023-01-14T17:30:43.080192","FILE":"3745119","OBJECT_ID":"2020-035AB","APOAPSIS":"548.036","ARG_OF_PERICENTER":"108.3422","REF_FRAME":"TEME","RA_OF_ASC_NODE":"178.9974","BSTAR":"0.00007627200000","MEAN_MOTION_DOT":"0.00000855","OBJECT_NAME":"STARLINK-1397","GP_ID":"223025205","OBJECT_TYPE":"PAYLOAD","COUNTRY_CODE":"US","CENTER_NAME":"EARTH"},{"TLE_LINE1":"1 45683U 20035AC  23014.44585781  .00002324  00000-0  17490-3 0  9993","CLASSIFICATION_TYPE":"U","MEAN_MOTION_DDOT":"0.0000000000000","ECCENTRICITY":"0.00014090","EPHEMERIS_TYPE":"0","TIME_SYSTEM":"UTC","RCS_SIZE":"LARGE","SEMIMAJOR_AXIS":"6925.379","SITE":"AFETR","INCLINATION":"53.0542","LAUNCH_DATE":"2020-06-04","MEAN_ELEMENT_THEORY":"SGP4","NORAD_CAT_ID":"45683","PERIAPSIS":"546.269","REV_AT_EPOCH":"14509","MEAN_MOTION":"15.06389924","DECAY_DATE":null,"PERIOD":"95.593","TLE_LINE2":"2 45683  53.0542 180.2617 0001409  87.8629 272.2521 15.06389924145093","MEAN_ANOMALY":"272.2521","APOAPSIS":"548.220","ARG_OF_PERICENTER":"87.8629","REF_FRAME":"TEME","RA_OF_ASC_NODE":"180.2617","BSTAR":"0.00017490000000","EPOCH":"2023-01-14T10:42:02.114784","ELEMENT_SET_NO":"999","FILE":"3744696","OBJECT_ID":"2020-035AC","GP_ID":"222997815","COUNTRY_CODE":"US","OBJECT_TYPE":"PAYLOAD","CENTER_NAME":"EARTH","MEAN_MOTION_DOT":"0.00002324","OBJECT_NAME":"STARLINK-1399"},{"OBJECT_ID":"2020-035AD","FILE":"3744168","ELEMENT_SET_NO":"999","EPOCH":"2023-01-14T03:48:02.075040","BSTAR":"0.00003871500000","RA_OF_ASC_NODE":"181.5610","APOAPSIS":"548.385","REF_FRAME":"TEME","ARG_OF_PERICENTER":"82.9290","MEAN_MOTION_DOT":"0.00000295","OBJECT_NAME":"STARLINK-1401","CENTER_NAME":"EARTH","GP_ID":"222987205","COUNTRY_CODE":"US","OBJECT_TYPE":"PAYLOAD","SITE":"AFETR","INCLINATION":"53.0518","RCS_SIZE":"LARGE","SEMIMAJOR_AXIS":"6925.367","ECCENTRICITY":"0.00016640","MEAN_MOTION_DDOT":"0.0000000000000","TIME_SYSTEM":"UTC","EPHEMERIS_TYPE":"0","TLE_LINE1":"1 45684U 20035AD  23014.15835735  .00000295  00000-0  38715-4 0  9998","CLASSIFICATION_TYPE":"U","TLE_LINE2":"2 45684  53.0518 181.5610 0001664  82.9290 277.1888 15.06393917145050","MEAN_ANOMALY":"277.1888","PERIOD":"95.593","REV_AT_EPOCH":"14505","PERIAPSIS":"546.080","LAUNCH_DATE":"2020-06-04","NORAD_CAT_ID":"45684","MEAN_ELEMENT_THEORY":"SGP4","DECAY_DATE":null,"MEAN_MOTION":"15.06393917"},{"MEAN_MOTION":"15.06390710","DECAY_DATE":null,"PERIAPSIS":"546.397","REV_AT_EPOCH":"14511","MEAN_ELEMENT_THEORY":"SGP4","LAUNCH_DATE":"2020-06-04","NORAD_CAT_ID":"45685","TLE_LINE2":"2 45685  53.0503 179.7859 0001220  97.9772 262.1355 15.06390710145116","MEAN_ANOMALY":"262.1355","PERIOD":"95.593","TIME_SYSTEM":"UTC","EPHEMERIS_TYPE":"0","MEAN_MOTION_DDOT":"0.0000000000000","ECCENTRICITY":"0.00012200","TLE_LINE1":"1 45685U 20035AE  23014.55275068  .00002490  00000-0  18602-3 0  9991","CLASSIFICATION_TYPE":"U","INCLINATION":"53.0503","SITE":"AFETR","SEMIMAJOR_AXIS":"6925.377","RCS_SIZE":"LARGE","CENTER_NAME":"EARTH","COUNTRY_CODE":"US","OBJECT_TYPE":"PAYLOAD","GP_ID":"222997882","OBJECT_NAME":"STARLINK-1402","MEAN_MOTION_DOT":"0.00002490","BSTAR":"0.00018602000000","RA_OF_ASC_NODE":"179.7859","REF_FRAME":"TEME","ARG_OF_PERICENTER":"97.9772","APOAPSIS":"548.087","OBJECT_ID":"2020-035AE","FILE":"3744700","ELEMENT_SET_NO":"999","EPOCH":"2023-01-14T13:15:57.658752"},{"PERIOD":"95.591","TLE_LINE2":"2 45686  53.0536 178.9236 0001478  80.6583 279.4574 15.06420948145141","MEAN_ANOMALY":"279.4574","LAUNCH_DATE":"2020-06-04","MEAN_ELEMENT_THEORY":"SGP4","NORAD_CAT_ID":"45686","REV_AT_EPOCH":"14514","PERIAPSIS":"546.126","MEAN_MOTION":"15.06420948","DECAY_DATE":null,"RCS_SIZE":"LARGE","SEMIMAJOR_AXIS":"6925.284","SITE":"AFETR","INCLINATION":"53.0536","TLE_LINE1":"1 45686U 20035AF  23014.74440763 -.00003406  00000-0 -20977-3 0  9997","CLASSIFICATION_TYPE":"U","ECCENTRICITY":"0.00014780","MEAN_MOTION_DDOT":"0.0000000000000","EPHEMERIS_TYPE":"0","TIME_SYSTEM":"UTC","MEAN_MOTION_DOT":"-0.00003406","OBJECT_NAME":"STARLINK-1404","GP_ID":"223025218","COUNTRY_CODE":"US","OBJECT_TYPE":"PAYLOAD","CENTER_NAME":"EARTH","ELEMENT_SET_NO":"999","EPOCH":"2023-01-14T17:51:56.819232","FILE":"3745120","OBJECT_ID":"2020-035AF","APOAPSIS":"548.173","ARG_OF_PERICENTER":"80.6583","REF_FRAME":"TEME","RA_OF_ASC_NODE":"178.9236","BSTAR":"-0.00020977000000"},{"BSTAR":"0.00103790000000","RA_OF_ASC_NODE":"178.3851","REF_FRAME":"TEME","ARG_OF_PERICENTER":"156.8052","APOAPSIS":"531.195","OBJECT_ID":"2020-035AH","FILE":"3744168","ELEMENT_SET_NO":"999","EPOCH":"2023-01-14T04:08:43.428768","CENTER_NAME":"EARTH","OBJECT_TYPE":"PAYLOAD","COUNTRY_CODE":"US","GP_ID":"222986866","OBJECT_NAME":"STARLINK-1408","MEAN_MOTION_DOT":"0.00017952","TIME_SYSTEM":"UTC","EPHEMERIS_TYPE":"0","MEAN_MOTION_DDOT":"0.0000000000000","ECCENTRICITY":"0.00031370","CLASSIFICATION_TYPE":"U","TLE_LINE1":"1 45688U 20035AH  23014.17272487  .00017952  00000-0  10379-2 0  9995","INCLINATION":"53.0548","SITE":"AFETR","SEMIMAJOR_AXIS":"6907.163","RCS_SIZE":"LARGE","MEAN_MOTION":"15.12353048","DECAY_DATE":null,"REV_AT_EPOCH":"14508","PERIAPSIS":"526.861","LAUNCH_DATE":"2020-06-04","MEAN_ELEMENT_THEORY":"SGP4","NORAD_CAT_ID":"45688","TLE_LINE2":"2 45688  53.0548 178.3851 0003137 156.8052 203.3082 15.12353048145080","MEAN_ANOMALY":"203.3082","PERIOD":"95.216"},{"EPOCH":"2023-01-14T19:54:02.362464","ELEMENT_SET_NO":"999","OBJECT_ID":"2020-035AJ","FILE":"3745121","APOAPSIS":"548.051","REF_FRAME":"TEME","ARG_OF_PERICENTER":"93.6385","BSTAR":"0.00014989000000","RA_OF_ASC_NODE":"178.5481","MEAN_MOTION_DOT":"0.00001952","OBJECT_NAME":"STARLINK-1413","GP_ID":"223025233","OBJECT_TYPE":"PAYLOAD","COUNTRY_CODE":"US","CENTER_NAME":"EARTH","RCS_SIZE":"LARGE","SEMIMAJOR_AXIS":"6925.352","SITE":"AFETR","INCLINATION":"53.0534","TLE_LINE1":"1 45689U 20035AJ  23014.82919401  .00001952  00000-0  14989-3 0  9997","CLASSIFICATION_TYPE":"U","ECCENTRICITY":"0.00012040","MEAN_MOTION_DDOT":"0.0000000000000","TIME_SYSTEM":"UTC","EPHEMERIS_TYPE":"0","PERIOD":"95.592","MEAN_ANOMALY":"266.4742","TLE_LINE2":"2 45689  53.0534 178.5481 0001204  93.6385 266.4742 15.06398932145152","REV_AT_EPOCH":"14515","PERIAPSIS":"546.383","NORAD_CAT_ID":"45689","LAUNCH_DATE":"2020-06-04","MEAN_ELEMENT_THEORY":"SGP4","MEAN_MOTION":"15.06398932","DECAY_DATE":null},{"OBJECT_NAME":"STARLINK-1414","MEAN_MOTION_DOT":"0.00012413","OBJECT_TYPE":"PAYLOAD","COUNTRY_CODE":"US","GP_ID":"223025264","CENTER_NAME":"EARTH","EPOCH":"2023-01-14T20:03:18.168480","ELEMENT_SET_NO":"999","FILE":"3745123","OBJECT_ID":"2020-035AK","ARG_OF_PERICENTER":"58.4158","REF_FRAME":"TEME","APOAPSIS":"548.702","RA_OF_ASC_NODE":"178.5138","BSTAR":"0.00085122000000","PERIOD":"95.593","TLE_LINE2":"2 45690  53.0566 178.5138 0002057  58.4158 301.7032 15.06379152145093","MEAN_ANOMALY":"301.7032","MEAN_MOTION":"15.06379152","DECAY_DATE":null,"MEAN_ELEMENT_THEORY":"SGP4","LAUNCH_DATE":"2020-06-04","NORAD_CAT_ID":"45690","REV_AT_EPOCH":"14509","PERIAPSIS":"545.853","SEMIMAJOR_AXIS":"6925.412","RCS_SIZE":"LARGE","INCLINATION":"53.0566","SITE":"AFETR","TLE_LINE1":"1 45690U 20035AK  23014.83562695  .00012413  00000-0  85122-3 0  9990","CLASSIFICATION_TYPE":"U","EPHEMERIS_TYPE":"0","TIME_SYSTEM":"UTC","MEAN_MOTION_DDOT":"0.0000000000000","ECCENTRICITY":"0.00020570"},{"CLASSIFICATION_TYPE":"U","TLE_LINE1":"1 45691U 20035AL  23014.54906412 -.00000939  00000-0 -44131-4 0  9996","ECCENTRICITY":"0.00011910","MEAN_MOTION_DDOT":"0.0000000000000","EPHEMERIS_TYPE":"0","TIME_SYSTEM":"UTC","RCS_SIZE":"LARGE","SEMIMAJOR_AXIS":"6925.333","SITE":"AFETR","INCLINATION":"53.0520","MEAN_ELEMENT_THEORY":"SGP4","LAUNCH_DATE":"2020-06-04","NORAD_CAT_ID":"45691","REV_AT_EPOCH":"14551","PERIAPSIS":"546.373","DECAY_DATE":null,"MEAN_MOTION":"15.06405201","PERIOD":"95.592","MEAN_ANOMALY":"264.9611","TLE_LINE2":"2 45691  53.0520 179.8039 0001191  95.1514 264.9611 15.06405201145515","APOAPSIS":"548.022","ARG_OF_PERICENTER":"95.1514","REF_FRAME":"TEME","RA_OF_ASC_NODE":"179.8039","BSTAR":"-0.00004413100000","ELEMENT_SET_NO":"999","EPOCH":"2023-01-14T13:10:39.139968","FILE":"3744815","OBJECT_ID":"2020-035AL","GP_ID":"223000766","COUNTRY_CODE":"US","OBJECT_TYPE":"PAYLOAD","CENTER_NAME":"EARTH","MEAN_MOTION_DOT":"-0.00000939","OBJECT_NAME":"STARLINK-1415"},{"MEAN_MOTION_DOT":"0.00009849","OBJECT_NAME":"STARLINK-1416","CENTER_NAME":"EARTH","GP_ID":"222986916","COUNTRY_CODE":"US","OBJECT_TYPE":"PAYLOAD","OBJECT_ID":"2020-035AM","FILE":"3744171","ELEMENT_SET_NO":"999","EPOCH":"2023-01-13T21:04:40.050912","BSTAR":"0.00067902000000","RA_OF_ASC_NODE":"182.8049","APOAPSIS":"548.300","REF_FRAME":"TEME","ARG_OF_PERICENTER":"74.4352","TLE_LINE2":"2 45692  53.0539 182.8049 0001608  74.4352 285.6814 15.06408850145017","MEAN_ANOMALY":"285.6814","PERIOD":"95.592","REV_AT_EPOCH":"14501","PERIAPSIS":"546.073","MEAN_ELEMENT_THEORY":"SGP4","LAUNCH_DATE":"2020-06-04","NORAD_CAT_ID":"45692","DECAY_DATE":null,"MEAN_MOTION":"15.06408850","SITE":"AFETR","INCLINATION":"53.0539","RCS_SIZE":"LARGE","SEMIMAJOR_AXIS":"6925.321","MEAN_MOTION_DDOT":"0.0000000000000","ECCENTRICITY":"0.00016080","TIME_SYSTEM":"UTC","EPHEMERIS_TYPE":"0","CLASSIFICATION_TYPE":"U","TLE_LINE1":"1 45692U 20035AM  23013.87824133  .00009849  00000-0  67902-3 0  9998"}];
